HIMAWARI-9              
1 41836U 16064A   21136.54771536 -.00000266  00000-0  00000-0 0  9995
2 41836   0.0181  51.9156 0000905   1.9327 158.5738  1.00273161 16563
SHIJIAN-17 (SJ-17)      
1 41838U 16065A   21136.60674545 -.00000354  00000-0  00000-0 0  9995
2 41838   1.0449  93.1350 0005576 348.8645 128.4922  1.00273067 16580
GOES 16                 
1 41866U 16071A   21136.41941481 -.00000240  00000-0  00000-0 0  9992
2 41866   0.0129 345.3613 0000135  56.6531 268.1166  1.00274496 16481
TIANLIAN 1-04           
1 41869U 16072A   21136.59424316  .00000040  00000-0  00000-0 0  9995
2 41869   0.0705 274.4725 0022753 181.7502 169.0364  1.00274224 16677
WGS F8 (USA 272)        
1 41879U 16075A   21136.54771536 -.00000194  00000-0  00000-0 0  9994
2 41879   0.0095 310.5197 0000056  51.3167 219.6169  1.00270367 16204
FENGYUN 4A              
1 41882U 16077A   21136.61229998 -.00000322  00000-0  00000-0 0  9991
2 41882   0.1067 287.8402 0003148 205.7996  66.0485  1.00269398 16356
ECHOSTAR 19             
1 41893U 16079A   21136.48535187 -.00000129  00000-0  00000-0 0  9995
2 41893   0.0261 289.9764 0001006 120.0164 262.0350  1.00270242 16083
JCSAT-15                
1 41903U 16082A   21136.56438109 -.00000343  00000-0  00000-0 0  9994
2 41903   0.0185 298.4422 0001179 111.5882 137.7178  1.00271024 16130
STAR ONE D1             
1 41904U 16082B   21136.52983744 -.00000202  00000-0  00000-0 0  9995
2 41904   0.0318 103.4736 0002482 314.2141 283.5260  1.00271456 16142
TJS-2                   
1 41911U 17001A   21136.53374056  .00000002  00000-0  00000-0 0  9993
2 41911   0.0872  87.1769 0001367  20.9826  24.9129  1.00272738 16102
SBIRS GEO-4 (USA 273)   
1 41937U 17004A   21136.58607446  .00000137  00000-0  00000-0 0  9990
2 41937   3.1226 313.3697 0001736 103.7175 229.0258  1.00272598 15977
HISPASAT 36W-1          
1 41942U 17006A   21136.18047829 -.00000235  00000-0  00000-0 0  9997
2 41942   0.0045 307.3815 0000933 102.2685 213.4499  1.00271400 15606
TELKOM 3S               
1 41944U 17007A   21136.55882670 -.00000354  00000-0  00000-0 0  9994
2 41944   0.0187 295.1675 0002241 123.7029 134.7898  1.00269116 15516
INTELSAT 32E (IS-32E)   
1 41945U 17007B   21136.46615522 -.00000260  00000-0  00000-0 0  9991
2 41945   0.0124 357.7973 0000531 319.4268  41.8146  1.00272647 15600
ECHOSTAR 23             
1 42070U 17014A   21135.81528705 -.00000261  00000-0  00000-0 0  9994
2 42070   0.0135 302.4074 0002030 111.1651  45.7797  1.00269216 15300
WGS F9 (USA 275)        
1 42075U 17016A   21136.36212626 -.00000086  00000-0  00000-0 0  9999
2 42075   0.0634 101.8029 0000255 173.7181  77.3441  1.00271024 15272
SES-10                  
1 42432U 17017A   21136.42631000 -.00000264  00000-0  00000-0 0  9993
2 42432   0.0076 324.0692 0002454  99.1129 257.7548  1.00272319 15113
CHINASAT 16 (SJ-13)     
1 42662U 17018A   21136.60674545 -.00000344  00000-0  00000-0 0  9999
2 42662   0.0473  58.1170 0003995 187.3261 318.0455  1.00271481 15110
KOREASAT 7              
1 42691U 17023A   21136.56403389 -.00000353  00000-0  00000-0 0  9998
2 42691   0.0581  87.0421 0001815   3.0252 103.3830  1.00270748 14751
SGDC                    
1 42692U 17023B   21135.55938516 -.00000240  00000-0  00000-0 0  9997
2 42692   0.0439  90.4117 0002314 329.1100 300.5135  1.00272939 14790
GSAT-9                  
1 42695U 17024A   21136.56976444 -.00000277  00000-0  00000-0 0  9995
2 42695   0.0703 273.6496 0002501 149.4060 113.8621  1.00268832 14688
INMARSAT 5-F4           
1 42698U 17025A   21136.49979846  .00000083  00000-0  00000-0 0  9994
2 42698   0.0181 299.8723 0000224  47.5834 123.4046  1.00272136 14647
SES-15                  
1 42709U 17026A   21136.47178681  .00000068  00000-0  00000-0 0  9997
2 42709   0.0250  25.0605 0000301 331.6171 278.4367  1.00270695 15525
QZS-2 (MICHIBIKI-2)     
1 42738U 17028A   21130.70257448 -.00000252  00000-0  00000-0 0  9996
2 42738  42.4451 269.8397 0740247 270.7969  78.0014  1.00248817 14459
VIASAT-2                
1 42740U 17029A   21135.81485088 -.00000256  00000-0  00000-0 0  9994
2 42740   0.0156 280.2713 0000198   5.0926 171.8453  1.00271848 14559
EUTELSAT 172B           
1 42741U 17029B   21136.15020744  .00000004  00000-0  00000-0 0  9997
2 42741   0.0145 250.2717 0000282 340.7051 229.1997  1.00272601 15099
GSAT-19                 
1 42747U 17031A   21135.90674389  .00000134  00000-0  00000-0 0  9992
2 42747   0.0371 267.3184 0007626 155.1325 185.7301  1.00274205 14507
ECHOSTAR 21             
1 42749U 17032A   21136.11793014  .00000072  00000-0  00000-0 0  9997
2 42749   4.8192 311.4526 0002161 107.2913 228.0398  1.00272479 14477
CHINASAT 9A (ZX 9A)     
1 42763U 17035A   21136.53576948 -.00000259  00000-0  00000-0 0  9995
2 42763   0.2276  98.0506 0007100 296.4820 338.9329  0.99786216 15111
BULGARIASAT-1           
1 42801U 17038A   21136.52757837  .00000020  00000-0  00000-0 0  9993
2 42801   0.0275 289.3480 0002811 128.9618   7.9747  1.00273075 14196
HELLAS-SAT 3            
1 42814U 17040A   21136.51646708  .00000161  00000-0  00000-0 0  9999
2 42814   0.0679  38.4675 0004901 358.3489  62.5620  1.00274094 14205
GSAT-17                 
1 42815U 17040B   21136.56976444 -.00000250  00000-0  00000-0 0  9998
2 42815   0.0128  85.1514 0002631 240.1936 207.7685  1.00272189 14161
INTELSAT 35E (IS-35E)   
1 42818U 17041A   21136.46789994 -.00000229  00000-0  00000-0 0  9999
2 42818   0.0147 240.7037 0002009 172.7707 314.8767  1.00270770 14209
COSMOS 2520             
1 42907U 17046A   21133.45743725  .00000146  00000-0  00000+0 0  9997
2 42907   0.0491 107.0902 0000632  76.5706 257.4882  1.00275733 13737
TDRS 13                 
1 42915U 17047A   21136.36212626 -.00000094  00000-0  00000-0 0  9995
2 42915   5.0655 330.9616 0018678 101.3298 280.8417  1.00272431 13729
QZS-3 (MICHIBIKI-3)     
1 42917U 17048A   21136.55326976 -.00000339  00000-0  00000-0 0  9995
2 42917   0.0622 147.5257 0000977 243.1565 169.9556  1.00277202 13630
AMAZONAS 5              
1 42934U 17053A   21136.43077947 -.00000274  00000-0  00000-0 0  9996
2 42934   0.0342 315.9154 0003789  68.0176 304.5409  1.00272706 13459
ASIASAT 9               
1 42942U 17057A   21134.34577392 -.00000350  00000-0  00000-0 0  9991
2 42942   0.0158 268.8369 0002077 141.0827  68.9733  1.00270773 13296
INTELSAT 37E (IS-37E)   
1 42950U 17059A   21136.34146767 -.00000131  00000-0  00000-0 0  9999
2 42950   0.0164 305.8476 0002375 107.4041 285.9621  1.00273109 13437
BSAT-4A                 
1 42951U 17059B   21136.56438109 -.00000342  00000-0  00000-0 0  9992
2 42951   0.0552  47.8294 0004048   6.9374 132.7381  1.00269320 13174
QZS-4 (MICHIBIKI-4)     
1 42965U 17062A   21136.50674466 -.00000309  00000-0  00000-0 0  9996
2 42965  40.8255   7.2369 0746972 270.9325 277.6159  1.00265223 13183
SES-11 (ECHOSTAR 105)   
1 42967U 17063A   21136.59029845 -.00000080  00000-0  00000-0 0  9999
2 42967   0.0175 300.4452 0001776 103.5795 298.0685  1.00270333 13092
KOREASAT 5A             
1 42984U 17067A   21136.56438109 -.00000350  00000-0  00000-0 0  9996
2 42984   0.0145  47.8667 0001630  27.9844 114.9832  1.00271939 12914
ALCOMSAT 1              
1 43039U 17078A   21136.39804469 -.00000177  00000-0  00000-0 0  9994
2 43039   0.0357 179.0181 0002398 249.4796 284.3357  1.00272111 12657
SBIRS GEO-3 (USA 282)   
1 43162U 18009A   21136.43075816 -.00000285  00000-0  00000-0 0  9997
2 43162   4.3126 317.2193 0001724  97.8811 113.3447  1.00271722 12219
AL YAH 3                
1 43174U 18012A   21136.39891705 -.00000146  00000-0  00000-0 0  9998
2 43174   0.0265 281.2829 0001808 125.9230 310.6482  1.00270386 12223
SES-14                  
1 43175U 18012B   21136.46528286 -.00000269  00000-0  00000-0 0  9994
2 43175   0.0072 328.9864 0000808  68.7129 316.7072  1.00270951 12431
GOES 17                 
1 43226U 18022A   21136.37825155  .00000106  00000-0  00000-0 0  9996
2 43226   0.0301 261.6958 0000252 130.3096 201.2852  1.00271924 11784
HISPASAT 30W-6          
1 43228U 18023A   21136.39699786 -.00000207  00000-0  00000-0 0  9993
2 43228   0.0455  39.2450 0006699  17.5128 290.5047  1.00272811 11834
SUPERBIRD 8             
1 43271U 18033A   21136.54962708 -.00000084  00000-0  00000-0 0  9999
2 43271   0.0439 114.9729 0000732 331.1030 148.2863  1.00271408 11424
HYLAS 4                 
1 43272U 18033B   21136.46807441 -.00000224  00000-0  00000-0 0  9999
2 43272   0.0632 116.6792 0002560  22.8920 229.8706  1.00274082 11458
IRNSS-1I                
1 43286U 18035A   21136.48578330  .00000114  00000-0  00000-0 0  9997
2 43286  29.0233 103.8627 0019322 188.3897 172.1779  1.00277912 11456
USA 283                 
1 43339U 18036A   21133.56576939 -.00000307  00000-0  00000+0 0  9990
2 43339   0.0049 284.8495 0000058 112.5812 171.8883  1.00269177    87
COSMOS 2526             
1 43432U 18037A   21135.85435634 -.00000335  00000-0  00000-0 0  9997
2 43432   0.0060 178.8697 0000706 291.1023 199.4465  1.00274172 11331
APSTAR 6C               
1 43450U 18041A   21134.10674605 -.00000308  00000-0  00000-0 0  9992
2 43450   0.0064 227.5503 0000279 234.8368 302.0811  1.00268339 11193
BANGABANDHUSAT-1        
1 43463U 18044A   21136.55882670 -.00000354  00000-0  00000-0 0  9994
2 43463   0.0121 356.2525 0002228  57.2528 141.2667  1.00271974 11085
SES-12                  
1 43488U 18049A   21136.56976444 -.00000262  00000-0  00000-0 0  9998
2 43488   0.0411  72.4700 0001399 232.3844 229.7707  1.00272825 10803
FENGYUN 2H              
1 43491U 18050A   21136.03114865 -.00000118  00000-0  00000-0 0  9997
2 43491   0.1717 123.9554 0003809   2.6164 197.7712  1.00269798 10802
BEIDOU IGSO-7           
1 43539U 18057A   21136.34650818 -.00000079  00000-0  00000-0 0  9990
2 43539  55.0524 179.2444 0038359 222.2789  71.0591  1.00278907 10523
